TEVEL2-2                
1 63219U 25052K   26068.64848259  .00020339  00000+0  69428-3 0  9991
2 63219  97.3987 324.7700 0004693 105.7930 254.3828 15.30343745 54855
STARLINK-34105          
1 63977U 25099AB  26068.28299949  .00037781  00000+0  13746-2 0  9999
2 63977  43.0027 175.0896 0001488 301.6902  58.3804 15.27600260 47220
